#cP2022  3  5 18  0  0.00000000     576 d+D   IGb14 EXT AIUB
## 2199 583200.00000000   300.00000000 59643 0.7500000000000
+   76   G01G02G03G04G05G06G07G08G09G10G11G12G13G14G15G16G17
+        G18G19G20G21G22G23G24G25G26G27G28G29G30G31G32R01R02
+        R03R04R05R07R08R09R11R12R13R14R15R17R18R19R20R21R22
+        R24E01E02E03E04E05E07E08E09E10E11E12E13E15E18E19E21
+        E25E26E27E30E31E33E34E36  0  0  0  0  0  0  0  0  0
++         6  7  6  8  7  6  7  6  6  6  8  7  6  7  7  7  7
++         8  7  7  7  7  7  7  6  6  6  7  8  6  7  6  9  7
++         8  8  8  8  8  6  6  7  7  6  7  9  7  9  9  8  7
++         8  6  6  6  6  6  5  6  6  7  7  7  6  6  7  7  6
++         6  7  6  6  6  6  7  6  0  0  0  0  0  0  0  0  0
%c M  cc GPS ccc cccc cccc cccc cccc ccccc ccccc ccccc ccccc
%c cc cc ccc ccc cccc cccc cccc cccc ccccc ccccc ccccc ccccc
%f  1.2500000  1.025000000  0.00000000000  0.000000000000000
%f  0.0000000  0.000000000  0.00000000000  0.000000000000000
%i    0    0    0    0      0      0      0      0         0
%i    0    0    0    0      0      0      0      0         0
/* Center for Orbit Determination in Europe (CODE)          
/* Ultra-rapid GRE orbits starting year-day 22064 18 hour   
/* Observed/predicted: 24/24 hours (data used up to 065R)   
/* PCV:IGS14      OL/AL:FES2014b NONE     YN ORB:CoN CLK:BRD
*  2022  3  6 11 55  0.00000000
PG01 -20479.475417 -11520.945634  12435.077650    415.554526
PG02  13635.186869  21433.275278   8166.144550   -651.895265
PG03 -15027.600037  -1836.545792  21711.314667   -151.045994
PG04 -25395.894976  -1515.785774   7782.563124   -185.490557
PG05   7984.783891  17706.780217 -18208.122320    -73.705434
PG06   -334.215405  18746.077440  18849.697383    222.307771
PG07 -15856.859809   4095.683177 -20616.100119    314.502833
PG08 -19599.156276  -7518.972250 -16508.866216    -58.767192
PG09 -25321.352657   7525.989419  -2992.701901   -351.170712
PG10  11555.837730 -23183.099450  -4974.058411   -338.831492
PG11  11417.659055  22903.128838   7134.556147    -70.098994
PG12  13549.966283   6190.938386  21721.990835   -180.751192
PG13  11649.274653  13178.775516 -20102.584628    272.323534
PG14 -13117.667220  22331.651258  -5717.204527    -91.071222
PG15  20769.449208   5848.259637 -16098.202180    -78.889169
PG16  -2936.823124 -20724.254764 -16334.647065   -477.431055
PG17 -16029.765520  13444.466891  16826.360468    583.649829
PG18  15366.160512  -4265.805938 -21259.685901    226.051853
PG19  -8514.849803  14417.613613  20309.247475    127.426870
PG20   3202.848605  24404.256987 -10294.247243    516.421309
PG21 -20772.882739 -16838.138125   3694.548648    159.023061
PG22   4652.722742 -15524.419189  21415.291687    223.338098
PG23  15625.034875 -15451.128174 -14861.042044     -4.456310
PG24  21732.251028  13345.056170   7841.542192    270.336960
PG25  16642.482205  -8283.133090  18576.873266    294.552878
PG26   3741.398445 -25697.043882  -4811.989476    188.586062
PG27  -8564.278003 -13305.857507 -21590.622322    144.447735
PG28  -8763.929434  25026.850088   3489.017739    386.463343
PG29  26293.132763  -3818.724384  -1163.762117   -488.083057
PG30  -9586.836022  12780.153581 -21119.700173   -517.176002
PG31  -1148.636514 -20157.224943  16884.850994   -167.694068
PG32  11616.817075 -15423.231883  18287.868708    -79.561084
PR01  18814.065549 -16905.283575   3362.317299      7.180730
PR02   4795.642536 -15230.115005  19915.986511    511.661630
PR03 -11284.187795  -4818.134525  22418.410302     52.641065
PR04 -20711.378688   8159.671522  12495.142467    130.666314
PR05 -18912.111884  16569.391388  -4356.593207     88.881071
PR07  11764.866562   4312.841996 -22168.462596     32.355962
PR08  20730.190444  -8300.956684 -12245.946683    -63.872421
PR09   3256.723939  25252.390318   -672.224009     42.908208
PR11  11057.728753    483.277420  22986.829126     44.201255
PR12   5818.850685 -18193.929875  16912.026809     17.350540
PR13  -2629.697081 -25301.034798   1848.646602    -19.104956
PR14  -9941.863907 -17538.396533 -15630.471237     75.081298
PR15 -11075.576156    249.259905 -22963.594197     97.737504
PR17 -21010.519498 -12557.190776  -7114.544681    507.284599
PR18 -23002.227016  -5327.799262   9745.856357    109.416100
PR19 -13908.254727   3766.680845  21051.595565   -180.569145
PR20   6063.113620  13151.503539  20994.439392    -66.197884
PR21  21645.238803  12246.789532   5716.871858   -283.133835
PR22  22617.994938   4917.933740 -10611.734574   -168.831993
PR24  -6942.578803 -13552.690004 -20443.744125     83.147909
PE01   3273.362142  26521.862704  12737.765035   -591.526186
PE02  -3400.995146 -26420.139697 -12890.112321    284.468095
PE03  -6956.819811 -15636.422893  24150.660399   -534.520007
PE04  24360.232607   4017.314661 -16318.984088   -978.633883
PE05  14860.504999 -18277.817383  17927.229464   -202.955945
PE07 -27735.842006  10240.783921  -1348.000369   -645.587200
PE08 -24569.081441  -3561.342859  16115.948460   -490.525007
PE09  27641.387203 -10487.683022   1591.270450   5337.965315
PE10  24006.389830   7490.501714 -15613.360346   -498.942987
PE11  19602.272572  -1923.192846 -22093.025263   4298.595100
PE12  24341.576735  15301.782284  -6980.625503   4727.197642
PE13 -19975.031053   1282.186642  21818.602683    427.066083
PE15 -24365.563006 -15360.085945   6859.440648    759.433141
PE18 -25559.797529   -449.294789  -4021.683317  -1716.382716
PE19   4163.059093  16429.261535 -24260.437999   -858.699787
PE21  -9016.850827  27805.975854  -4697.929302   -720.939503
PE25   9162.166071 -27703.963326   4937.852919   -565.845156
PE26  -3073.614422  17776.920317  23473.687004   -880.594064
PE27 -16905.183403  13200.955959 -20408.623653   -246.954381
PE30 -14404.820940 -10272.688589 -23741.341660   -326.423952
PE31  14782.069882   9073.445433  23988.625578   -493.128269
PE33  14351.629115  22879.938611  12103.897868   -458.826209
PE34 -14569.659132 -22848.323194 -11911.437135   -505.291260
PE36   3863.476211 -17077.531247 -23862.291372   -341.434897
EOF
